[{"OBJECT_NAME":"STARLINK-30131","OBJECT_ID":"2023-079L","EPOCH":"2026-03-09T22:00:01.999584","MEAN_MOTION":15.17301963,"ECCENTRICITY":0.00020252,"INCLINATION":43.0004,"RA_OF_ASC_NODE":79.5928,"ARG_OF_PERICENTER":274.1276,"MEAN_ANOMALY":22.6014,"EPHEMERIS_TYPE":0,"CLASSIFICATION_TYPE":"U","NORAD_CAT_ID":56833,"ELEMENT_SET_NO":999,"REV_AT_EPOCH":578,"BSTAR":0.061566052,"MEAN_MOTION_DOT":0.0135934,"MEAN_MOTION_DDOT":0},{"OBJECT_NAME":"CZ-4B R\/B","OBJECT_ID":"2008-053C","EPOCH":"2026-03-09T16:52:55.405920","MEAN_MOTION":15.20774751,"ECCENTRICITY":0.00860777,"INCLINATION":97.7895,"RA_OF_ASC_NODE":133.277,"ARG_OF_PERICENTER":241.1085,"MEAN_ANOMALY":118.1494,"EPHEMERIS_TYPE":0,"CLASSIFICATION_TYPE":"U","NORAD_CAT_ID":33410,"ELEMENT_SET_NO":999,"REV_AT_EPOCH":94950,"BSTAR":0.00029822835,"MEAN_MOTION_DOT":7.181e-5,"MEAN_MOTION_DDOT":0}]
